[{"OBJECT_NAME":"STARLINK-36207","OBJECT_ID":"2025-293M","EPOCH":"2026-03-09T11:22:17.509728","MEAN_MOTION":14.98309286,"ECCENTRICITY":0.0002744,"INCLINATION":70.0014,"RA_OF_ASC_NODE":95.0756,"ARG_OF_PERICENTER":271.2365,"MEAN_ANOMALY":88.8479,"EPHEMERIS_TYPE":0,"CLASSIFICATION_TYPE":"U","NORAD_CAT_ID":67014,"ELEMENT_SET_NO":999,"REV_AT_EPOCH":1485,"BSTAR":0.00020756491,"MEAN_MOTION_DOT":2.383e-5,"MEAN_MOTION_DDOT":0},{"OBJECT_NAME":"CZ-6A DEB","OBJECT_ID":"2022-151UT","EPOCH":"2026-03-09T17:50:02.810976","MEAN_MOTION":14.9898329,"ECCENTRICITY":0.00453187,"INCLINATION":98.6222,"RA_OF_ASC_NODE":145.5138,"ARG_OF_PERICENTER":180.208,"MEAN_ANOMALY":179.9129,"EPHEMERIS_TYPE":0,"CLASSIFICATION_TYPE":"U","NORAD_CAT_ID":55003,"ELEMENT_SET_NO":999,"REV_AT_EPOCH":17561,"BSTAR":0.0047870048,"MEAN_MOTION_DOT":0.00059614,"MEAN_MOTION_DDOT":0}]
